ONEWEB-0158             
1 48054U 21025N   24287.42329715  .00000475  00000+0  12649-2 0  9996
2 48054  87.8865  81.9134 0001643  99.4976 260.6339 13.13469336173323
ONEWEB-0157             
1 48055U 21025P   24287.44710682  .00000011  00000+0 -52447-5 0  9996
2 48055  87.8867  81.9219 0001519  87.9936 272.1367 13.13470947173273
ONEWEB-0162             
1 48056U 21025Q   24287.41057938  .00000665  00000+0  17844-2 0  9995
2 48056  87.8867  81.9238 0002150  92.4882 267.6494 13.13480533173236
ONEWEB-0155             
1 48057U 21025R   24287.43124145  .00000507  00000+0  13541-2 0  9998
2 48057  87.8867  81.9318 0001831  89.3914 270.7425 13.13471185173380
ONEWEB-0149             
1 48058U 21025S   24287.45185334 -.00000160  00000+0 -47225-3 0  9992
2 48058  87.8864  81.9231 0001403  94.7655 265.3634 13.13473256173191
ONEWEB-0148             
1 48059U 21025T   24287.72166093  .00000253  00000+0  65813-3 0  9998
2 48059  87.8868  81.8840 0001111  83.9442 276.1813 13.13471821173343
ONEWEB-0160             
1 48060U 21025U   24287.43282286  .00000538  00000+0  14394-2 0  9994
2 48060  87.8870  81.9378 0002138 115.3873 244.7477 13.13468964173254
ONEWEB-0163             
1 48061U 21025V   24287.41854627  .00000419  00000+0  11115-2 0  9993
2 48061  87.8864  81.9298 0001660  84.3718 275.7600 13.13469270173377
